#dP2020  2 28  0  0  0.00000000     289 ORBIT ITRF  BHN ESOC                    
## 2094 432000.00000000   300.00000000 58907 0.0000000000000                    
+  108   G18G14G13G28G21G11G22G07G05G20G31G17G15G16G29G12G19                    
+        G23G02G25G01G30G24G27G06G09G03G32G26G08G10G04R09R20                    
+        R19R13R01R22R23R16R08R03R07R02R17R14R11R18R21R05R15                    
+        R12R04E11E12E19E18E14E26E24E30E08E09E01E02E07E03E04                    
+        E05E21E25E27E31E36E13E15E33C11C12C14C19C20C27C28C22                    
+        C21C29C30C23C24C26C25C32C33C35C34C36C37C06C07C08C09                    
+        C10C13C16J01J02J03  0  0  0  0  0  0  0  0  0  0  0                    
++         5  5  5  4  5  5  4  4  5  5  5  5  5  5  5  5  5                    
++         5  5  5  5  4  4  5  5  4  5  5  5  5  5  5  5  6                    
++         6  6  7  5  5  6  5  6  6  5  6  5  5  5  5  5  6                    
++         5  5  5  5  5  5  5  5  5  5  5  5  5  5  5  5  5                    
++         5  5  5  5  5  5  5  5  5  5  5  6  6  5  6  6  5                    
++         5  6  6  5  5  5  5  6  6  6  5  6  6  6  6  7  6                    
++         7  7  6  7  6  6  0  0  0  0  0  0  0  0  0  0  0                    
%c M  cc GPS ccc cccc cccc cccc cccc ccccc ccccc ccccc ccccc                    
%c cc cc ccc ccc cccc cccc cccc cccc ccccc ccccc ccccc ccccc                    
%f  0.0000000  0.000000000  0.00000000000  0.000000000000000                    
%f  0.0000000  0.000000000  0.00000000000  0.000000000000000                    
%i    0    0    0    0      0      0      0      0         0                    
%i    0    0    0    0      0      0      0      0         0                    
/* CCCCCCCCCCCCCCCCCCCCCCCCCCCCCCCCCCCCCCCCCCCCCCCCCCCCCCCCCCCCCCCCCCCCCCCCCCCCC
/* CCCCCCCCCCCCCCCCCCCCCCCCCCCCCCCCCCCCCCCCCCCCCCCCCCCCCCCCCCCCCCCCCCCCCCCCCCCCC
/* CCCCCCCCCCCCCCCCCCCCCCCCCCCCCCCCCCCCCCCCCCCCCCCCCCCCCCCCCCCCCCCCCCCCCCCCCCCCC
/* PCV:IGS        OL/AL:EOT11A   NONE     YN ORB:CoN CLK:CoN                    
*  2020  2 28 15 50  0.00000000                                                 
PG18 -15813.695769 -16957.681262 -13537.900084      4.802062                    
PG14  15620.627350 -18173.691163  11579.189454    -29.550859                    
PG13  -2908.633337  17085.110384 -20225.955739     -9.510458                    
PG28 -12054.149985  15391.263022 -17457.020137    736.273540                    
PG21  23716.531933   1315.948835 -10820.881913    -34.701508                    
PG11 -14317.496274 -13770.667853 -17991.844086   -348.224412                    
PG22 -11093.989502 -22071.693473  10133.676741   -785.175478                    
PG07 -24320.877964  -4055.538305 -10193.160960   -224.615244                    
PG05   2045.118580  26352.052826    920.038308     -8.311249                    
PG20  15621.083792  -2722.898496 -21393.455656    527.875571                    
PG31   8489.326021 -12766.039377  21668.191691    -26.188112                    
PG17 -21830.638206  14946.733041   2408.960335    223.703379                    
PG15   8926.270692  13411.098276 -21404.515502   -248.425430                    
PG16    639.152758 -26297.670866    310.792449   -129.477715                    
PG29  21835.357432  -1204.686902  15050.625116    -44.266759                    
PG12  10206.248326  19211.582736  15126.555122    146.248798                    
PG19 -18296.838582  16783.568936   9142.471753   -192.533273                    
PG23 -17593.660790  -5019.786924  19737.672504   -133.205326                    
PG02   2054.998669  16832.557492  21102.878674   -413.010042                    
PG25  14815.502485   7107.645502  20690.912221    -11.345916                    
PG01 -21465.273499 -14925.920115  -5803.335346   -309.646369                    
PG30 -18492.174516   5401.368471 -18338.329150   -163.847915                    
PG24  20880.839219  14872.118801  -7824.489802     -9.688060                    
PG27   5164.705686 -18457.941526 -18361.421506   -224.244466                    
PG06 -10457.848402  11209.325362  21750.237430   -219.420944                    
PG09 -22373.998149   3727.153296  13781.052440   -165.678215                    
PG03 -12872.173813 -15944.865402  16892.385183   -105.409718                    
PG32  20747.336126 -16301.339470   2339.964172    223.917832                    
PG26   5057.586637 -23763.057982  10433.954224    157.569988                    
PG08  -6323.000776 -13774.495913 -21765.502410    -25.360081                    
PG10  11956.852869 -14290.577979 -18754.960164   -260.629114                    
PG04 -16326.387731  -6239.148156  20014.758120    -55.261133                    
PR09  10822.103180  -3948.117661  22764.279949    119.198303                    
PR20  24846.674113  -3241.773967  -4620.954763   -405.305379                    
PR19  20360.321631   5431.007568  14378.499983    -81.338965                    
PR13 -12547.547003    516.333934 -22223.596484    -35.416971                    
PR01  -8329.466872  -8136.249729  22697.971222     57.760662                    
PR22  -8186.051207  -9451.985144 -22244.340296    -15.852860                    
PR23 -23894.889673  -2267.378705  -8647.298413    289.309207                    
PR16  17422.688359  14781.926888  11446.585478     -1.788670                    
PR08   1061.851179 -19864.477380  16010.571969    -50.783321                    
PR03 -11087.620481  23001.085943    203.138217     10.681215                    
PR07  10785.666390 -23087.137887    498.849594    -33.785241                    
PR02 -14807.079885  12925.251001  16331.330926    414.205696                    
PR17 -13204.370920   9891.541815  19456.629754    304.819415                    
PR14   -751.464901  15831.507471 -19977.853350     48.584387                    
PR11 -11912.761388 -21908.767641   5473.423038    -15.048926                    
PR18   5038.369898  10009.961050  22928.244106     26.695830                    
PR21  12431.768745  -9944.828449 -19930.838870   -107.950281                    
PR05   9370.552480   5485.978275 -23071.891928     45.809140                    
PR15  11388.406258  21936.104678  -6309.665153    106.003010                    
PR12 -17010.008681 -15369.498236 -11134.769677    109.634553                    
PR04  -1150.256152  19844.215585 -15962.385365     40.265725                    
PE11 -10251.987695 -16534.513280 -22312.409282   1482.863052                    
PE12  12686.011852 -13457.200279 -23095.772566   5928.911146                    
PE19  22872.197728 -11077.791692 -15170.051983     -1.341436                    
PE18 -23708.367662  12726.362730   -799.667214  -1019.718317                    
PE14  17788.260160 -21478.732979 -11500.412187   -922.030152                    
PE26  26696.883352   9803.745748   8215.971677   3476.942164                    
PE24  -9104.932856 -28095.383906   1744.245778   5586.404120                    
PE30  -5045.479318  22428.132343 -18668.648972   4107.066940                    
PE08 -15793.219019  24588.158207  -4672.452619   6213.859099                    
PE09   -552.951164 -21676.764123  20158.584183   6141.651209                    
PE01  16055.277607  -3743.803250  24580.519382   -804.343475                    
PE02 -16020.668969   3859.706834 -24592.731893    115.899048                    
PE07    433.906724  21783.436930 -20028.422892   -347.288329                    
PE03 -22997.930926  12861.140675  13472.650244   -271.302778                    
PE04  16069.200146 -24453.012118   4473.216438   -475.001365                    
PE05 -16520.517443  -6396.406382  23713.979106   -401.516353                    
PE21  17940.231723  17025.786472  16260.411905   -585.188018                    
PE25 -17920.099136 -17113.892784 -16185.618920   -505.233632                    
PE27   9313.659061  28053.344994  -1677.767022    272.770172                    
PE31   4753.955890 -22558.134376  18566.026526   -471.854482                    
PE36 -26630.354240  -9717.699646  -8521.945325    592.461918                    
PE13  10018.376189  16452.903248  22484.358466    398.776681                    
PE15 -12428.117008  13525.064050  23227.954146    875.709389                    
PE33  27606.522237  -2640.886291 -10319.088146   -469.965103                    
PC11 -25995.464870   -263.596565 -10018.999992   -209.968746                    
PC12 -12128.501815 -11868.296982 -22110.099246    324.759252                    
PC14 -15796.095304  -2773.678539  22865.387694    192.226842                    
PC19  16918.803720  -8122.549630 -20629.791980    337.955601                    
PC20  12417.456929  12285.455995 -21738.547673   -783.242179                    
PC27   1780.108286  15862.466949  22880.168608    286.368947                    
PC28 -18050.197331  15162.989293  14937.891214    277.311124                    
PC22  11731.909214 -24200.115502  -7493.994122   -894.504405                    
PC21   -316.096313 -26090.665122   9940.685026   -121.436085                    
PC29  27047.861587  -6639.564509   1701.483587    193.945959                    
PC30  20581.844237   6718.509842  17595.896497    278.920840                    
PC23  -7728.873817  14808.199129 -22357.293141   -904.792760                    
PC24 -21221.088550 -17678.242611  -3893.511009   -926.741479                    
PC26 -10576.625050 -22576.730588  12495.831295    588.095047                    
PC25 -20481.038753  -1158.448702 -18916.277220   -531.506770                    
PC32    498.406652  26073.329741  -9910.083440   -881.639543                    
PC33 -16919.222851   8083.368130  20670.453336   -935.767885                    
PC35  17617.854030 -15756.070937 -14802.848995   -924.480198                    
PC34 -20920.540830  -6522.879170 -17294.856031   -507.038479                    
PC36  20548.908264   1851.482627  18808.077145   -825.597662                    
PC37   9562.619684  22778.916233 -12981.412913   -869.364867                    
PC06 -24462.552662  29636.803939 -17440.947056    242.399559                    
PC07 -10842.053093  36115.184480 -18164.395559   -106.042650                    
PC08 -10759.585214  18864.419051  36229.486357   -135.179006                    
PC09 -12004.637389  29308.678898 -27772.953961    366.233392                    
PC10   -818.027504  41380.874589  -6616.346439   -705.647616                    
PC13   3597.044351  25960.402850  33185.744325    293.868185                    
PC16 -20620.884753  30274.676058 -21023.812489   -753.271459                    
PJ01 -29017.076848  28698.723314  15585.163462   -326.264516                    
PJ02 -20502.136959  20508.780443 -26170.067699     -1.580910                    
PJ03 -30193.325690  28397.254522  12765.779835     -0.770808                    
EOF                                                                             
